ONEWEB-0027             
1 45432U 20020J   23290.72797667  .00000080  00000+0  17244-3 0  9997
2 45432  87.9179 199.3230 0001520  77.1216 283.0086 13.17649660178163
ONEWEB-0064             
1 45433U 20020K   23290.48590569  .00000346  00000+0  94118-3 0  9993
2 45433  87.8989 214.5050 0001555  70.2399 289.8897 13.11417732175074
ONEWEB-0018             
1 45434U 20020L   23290.51833921 -.00000981  00000+0 -28029-2 0  9994
2 45434  87.8999 214.4882 0002034  71.5871 288.5478 13.11419158175020
ONEWEB-0083             
1 45435U 20020M   23291.49883573 -.00000237  00000+0 -70522-3 0  9991
2 45435  87.8989 214.2793 0001787  76.6786 283.4541 13.11414203175193
ONEWEB-0095             
1 45436U 20020N   23291.49072648  .00000168  00000+0  43790-3 0  9993
2 45436  87.8994 214.3162 0001817  86.0592 274.0743 13.11417656175190
ONEWEB-0092             
1 45437U 20020P   23291.22937676  .00000367  00000+0  10006-2 0  9990
2 45437  87.8996 214.3473 0001868  87.4061 272.7281 13.11416399175263
ONEWEB-0085             
1 45438U 20020Q   23291.49235518  .00000088  00000+0  21256-3 0  9996
2 45438  87.8989 214.3029 0001849  68.5699 291.5626 13.11416381175194
ONEWEB-0096             
1 45439U 20020R   23290.50862562 -.00000450  00000+0 -13064-2 0  9995
2 45439  87.8988 214.4715 0002150  70.9292 289.2069 13.11416045175056
